{"type":"Feature","properties":{"role":"physical_land_not_political_border","source":"https://www.naturalearthdata.com/downloads/10m-cultural-vectors/10m-admin-1-states-provinces/","license":"public domain","simplification_degrees":0.055},"geometry":{"type":"MultiPolygon","coordinates":[[[[111.034679,19.642239],[110.858653,19.534817],[110.806326,19.612738],[110.580333,19.155178],[110.479177,19.169257],[110.554942,19.087348],[110.582286,19.150051],[110.513357,18.906399],[110.431488,18.821479],[110.492849,18.793118],[110.503429,18.881903],[110.534434,18.785631],[110.03419,18.511949],[110.040294,18.38227],[109.968598,18.389838],[110.013682,18.408922],[110.020518,18.450507],[109.746104,18.395901],[109.708751,18.207221],[109.561209,18.169338],[109.561209,18.258734],[109.478689,18.192694],[109.439952,18.288967],[109.162608,18.287828],[108.684906,18.515204],[108.631684,19.286282],[109.211192,19.724799],[109.307384,19.711127],[109.273204,19.793647],[109.163341,19.724799],[109.303722,19.921698],[109.581716,19.855699],[109.527029,19.951361],[109.719005,20.010647],[109.83546,19.930854],[109.942638,19.990912],[109.990082,19.905951],[110.156993,20.067369],[110.344737,20.058051],[110.417735,19.923407],[110.382986,20.081041],[110.605805,19.923163],[110.566173,20.069525],[110.677908,20.16356],[110.788341,20.010403],[110.934581,19.995063],[111.034679,19.642239]]],[[[110.451671,20.589179],[110.437022,20.667914],[110.475841,20.595933],[110.451671,20.589179]]],[[[110.630382,20.925767],[110.547537,20.917711],[110.602712,20.964911],[110.630382,20.925767]]],[[[110.502696,20.947496],[110.266612,20.972642],[110.24586,21.027574],[110.526378,21.082099],[110.502696,20.947496]]],[[[109.127696,21.032172],[109.090505,21.041938],[109.122732,21.065416],[109.127696,21.032172]]],[[[110.565196,21.112616],[110.417735,21.184638],[110.616954,21.19892],[110.565196,21.112616]]],[[[112.007335,21.643948],[111.809337,21.565497],[111.835297,21.643948],[112.007335,21.643948]]],[[[112.645356,21.712836],[112.534923,21.595526],[112.51824,21.616767],[112.645356,21.712836]]],[[[112.862559,21.769436],[112.764903,21.581855],[112.774425,21.691718],[112.706228,21.688381],[112.862559,21.769436]]],[[[113.275157,21.897528],[113.2317,21.934475],[113.267833,21.943305],[113.275157,21.897528]]],[[[113.771747,22.000343],[113.764477,21.966818],[113.736279,21.997162],[113.771747,22.000343]]],[[[114.28297,22.052558],[114.302501,22.044867],[114.206716,22.025784],[114.28297,22.052558]]],[[[113.309418,22.024115],[113.412608,22.075995],[113.405772,22.007025],[113.309418,22.024115]]],[[[113.52711,22.125881],[113.484711,22.071357],[113.464854,22.10814],[113.52711,22.125881]]],[[[113.31365,22.076402],[113.32309,22.157904],[113.364757,22.157904],[113.31365,22.076402]]],[[[113.653293,22.413728],[113.611816,22.43047],[113.649595,22.438566],[113.653293,22.413728]]],[[[113.628015,22.595785],[113.491368,22.705774],[113.476539,22.731268],[113.559505,22.735],[113.628015,22.595785]]],[[[113.602794,22.762641],[113.434093,22.849066],[113.405121,22.908108],[113.602794,22.762641]]],[[[114.408702,22.61164],[113.890345,22.452712],[113.758067,22.753404],[113.605561,22.847235],[113.638194,23.034898],[113.59669,22.918199],[113.617198,23.034898],[113.576182,22.938707],[113.583018,23.021226],[113.532725,22.995754],[113.582123,23.098456],[113.830089,23.117499],[113.417491,23.096991],[113.483979,22.924262],[113.212983,22.904527],[113.494233,22.774848],[113.377533,22.767401],[113.59917,22.57518],[113.587655,22.237882],[113.483745,22.155142],[113.165294,22.575588],[113.401971,22.179574],[113.302745,22.183295],[113.157467,22.0247],[113.085053,22.207587],[113.02562,21.949425],[112.911586,21.856291],[112.82602,21.966132],[112.550873,21.772854],[112.426036,21.84516],[112.493663,21.966132],[112.390636,21.955512],[112.397472,22.068508],[112.356537,21.979722],[112.40211,21.801418],[112.286225,21.708808],[112.182384,21.752997],[112.192638,21.843166],[112.028168,21.797349],[112.04127,21.884182],[111.969249,21.824042],[111.890391,21.925116],[112.000255,21.774319],[111.867931,21.676703],[111.835053,21.766832],[111.678071,21.781155],[111.787934,21.616034],[111.630463,21.529853],[111.581879,21.581855],[111.476085,21.513617],[111.432221,21.602973],[111.267345,21.439358],[111.30128,21.499335],[111.08839,21.472642],[111.027599,21.54092],[110.979747,21.444729],[111.042247,21.484565],[111.068614,21.472642],[110.992931,21.424872],[110.768158,21.397528],[110.65089,21.260403],[110.636485,21.370266],[110.755382,21.413398],[110.76002,21.444729],[110.63559,21.381049],[110.636485,21.23017],[110.431163,21.191474],[110.486339,21.335517],[110.35849,21.435736],[110.399425,21.176581],[110.195567,21.071275],[110.156749,20.848863],[110.368988,20.848863],[110.409434,20.750963],[110.341807,20.821519],[110.300792,20.65705],[110.53419,20.478258],[110.280284,20.252997],[110.037852,20.301703],[109.917247,20.239325],[109.862804,20.406317],[109.982432,20.351549],[110.009776,20.434231],[109.822113,20.516547],[109.848237,20.595649],[109.751557,20.673733],[109.860444,20.715481],[109.786876,20.691148],[109.661225,20.927558],[109.765717,21.355943],[109.924083,21.362779],[109.944428,21.493109],[109.81422,21.458401],[109.773204,21.581855],[109.773204,21.485663],[109.649669,21.520453],[109.594493,21.746405],[109.464692,21.664455],[109.572765,21.581732],[109.530772,21.491645],[109.23878,21.485663],[109.138682,21.401597],[109.039806,21.450263],[109.142589,21.510199],[109.135753,21.602973],[108.927989,21.615058],[108.855235,21.684963],[108.924083,21.766832],[108.801362,21.818345],[108.86142,21.643948],[108.745372,21.602973],[108.677013,21.815253],[108.594493,21.74018],[108.635509,21.890326],[108.573334,21.951809],[108.491466,21.856269],[108.458018,21.91767],[108.477794,21.698554],[108.56544,21.678534],[108.470958,21.561998],[108.389659,21.5751],[108.470958,21.671291],[108.341319,21.725816],[108.283783,21.544745],[108.211029,21.500637],[108.252778,21.588528],[108.206065,21.642564],[107.991222,21.548407],[108.080577,21.485663],[107.970714,21.431627],[107.811641,21.647827],[107.348155,21.599355],[107.272656,21.718314],[107.002905,21.810556],[107.009364,21.927448],[106.653107,21.968893],[106.662926,22.223296],[106.526913,22.43827],[106.789843,22.797188],[106.487794,22.925423],[106.255405,22.854653],[106.132105,22.975007],[105.853879,22.90465],[105.551572,23.059679],[105.312155,23.36581],[105.200896,23.254008],[104.870064,23.163548],[104.797923,23.085569],[104.823606,22.924132],[104.700772,22.818247],[104.553545,22.836049],[104.340173,22.686368],[104.241161,22.824396],[104.086856,22.791556],[103.959525,22.507103],[103.646934,22.799049],[103.503635,22.581413],[103.309642,22.787938],[103.029039,22.430157],[102.467781,22.768586],[102.218029,22.410675],[101.994994,22.447416],[101.867921,22.378842],[101.689121,22.478887],[101.515746,22.245362],[101.803842,21.625916],[101.736198,21.570881],[101.715114,21.321129],[101.823738,21.234467],[101.75599,21.143258],[101.517607,21.242632],[101.244342,21.192868],[101.082801,21.766735],[100.621744,21.469078],[100.341968,21.530367],[100.187145,21.427892],[100.089994,21.52892],[100.142807,21.654907],[99.95026,21.721156],[99.942406,22.045529],[99.14447,22.153533],[99.35779,22.495476],[99.307974,22.745176],[99.413394,22.930746],[99.538038,22.926431],[99.493079,23.057379],[99.333812,23.129623],[99.21661,23.057379],[98.859009,23.179387],[98.889602,23.406789],[98.780874,23.532854],[98.856012,23.610007],[98.793173,23.758473],[98.663672,23.796947],[98.658815,23.961123],[98.865727,24.145685],[98.10505,24.101527],[97.624666,23.846711],[97.516456,23.942829],[97.720061,24.147442],[97.6473,24.432334],[97.513252,24.438587],[97.532785,24.723324],[97.765226,24.834661],[97.699597,25.065009],[97.800986,25.237634],[97.90992,25.207558],[98.044899,25.311944],[98.140087,25.611461],[98.332633,25.566968],[98.498101,25.830724],[98.610032,25.800597],[98.692404,25.87899],[98.54554,26.105643],[98.70553,26.174941],[98.642175,26.254523],[98.755553,26.625043],[98.679279,27.577336],[98.410251,27.684254],[98.383276,27.555787],[98.294703,27.536615],[98.107117,27.973074],[98.126961,28.124279],[97.897518,28.355325],[97.765329,28.352431],[97.699597,28.48803],[97.546221,28.538466],[97.447829,28.297602],[97.323496,28.217478],[97.11555,28.366564],[96.965791,28.330468],[96.716924,28.436539],[96.369644,28.378116],[96.336459,28.479667],[96.592584,28.757884],[96.457605,28.994588],[96.366568,29.036537],[96.195323,28.941106],[96.174625,29.108845],[96.366241,29.257233],[96.235293,29.241214],[96.141966,29.368467],[95.744781,29.340432],[95.717165,29.218284],[95.56443,29.245606],[95.487577,29.068994],[95.367406,29.036496],[94.776571,29.166696],[94.63043,29.319452],[94.287505,29.147938],[94.347311,29.024349],[93.992019,28.844649],[93.927786,28.682752],[93.31717,28.603463],[93.186286,28.431995],[93.207825,28.340539],[92.678611,28.133064],[92.638924,28.057487],[92.736392,27.985909],[92.574977,27.847806],[92.303854,27.78616],[92.239568,27.865277],[91.864914,27.729988],[91.628339,27.852694],[91.621725,27.950724],[91.290169,28.091413],[91.0,27.970790927907874],[91.0,45.21766827329021],[91.533978,45.0711],[93.525278,44.951263],[93.927424,44.672933],[94.181879,44.660841],[94.69823,44.343496],[95.036814,44.254974],[95.397722,44.280502],[95.318967,44.017108],[95.535284,43.95768],[95.874385,43.247103],[96.318699,42.910069],[96.357767,42.724499],[97.193271,42.78726],[99.474476,42.564199],[100.016975,42.676518],[101.524945,42.537456],[101.735371,42.461156],[102.034164,42.18461],[103.073481,42.004517],[103.691427,41.759235],[104.500784,41.870598],[104.504918,41.656554],[104.97383,41.586145],[105.200896,41.743474],[106.767829,42.286619],[108.177355,42.454309],[109.485131,42.449296],[110.406728,42.768605],[110.973412,43.3156],[111.933353,43.696636],[111.838785,43.938792],[111.543816,44.156737],[111.397055,44.387369],[111.738533,44.9663],[111.958261,45.084536],[112.412807,45.066036],[112.748497,44.865273],[113.635058,44.746262],[114.089294,44.961753],[114.533711,45.3855],[115.63783,45.444359],[116.143949,45.694628],[116.357166,46.105559],[116.814606,46.38673],[117.301708,46.350144],[117.393795,46.57137],[117.797595,46.520262],[118.268987,46.722937],[118.720071,46.676739],[118.846523,46.765493],[119.062376,46.660951],[119.680116,46.591628],[119.904185,46.708933],[119.892919,46.90551],[119.699959,47.159526],[119.133896,47.527539],[119.08346,47.661562],[118.767406,47.756156],[118.472799,47.989449],[117.766899,47.993144],[117.360826,47.650865],[116.822047,47.876304],[116.243891,47.862894],[115.852701,47.705565],[115.575715,47.909738],[115.51422,48.131637],[115.799991,48.242328],[115.800404,48.530372],[116.684278,49.823265],[116.21764,50.013848],[115.716275,49.877784],[115.387819,49.891064],[114.659699,50.251404],[114.286285,50.276881],[113.579661,50.019945],[113.182683,49.801974],[113.06083,49.595992],[112.777126,49.501372],[112.473269,49.534135],[112.030195,49.411869],[111.338454,49.36474],[110.731359,49.137674],[109.286693,49.33854],[108.538057,49.32743],[107.927448,49.670044],[107.946517,49.933491],[107.192196,50.006044],[106.656518,50.327007],[106.222281,50.292384],[105.984879,50.399767],[105.32864,50.476455],[104.405802,50.300548],[104.121685,50.148258],[103.276776,50.197557],[103.20169,50.296983],[102.927391,50.302977],[102.302933,50.563892],[102.329392,50.718817],[102.216789,50.798864],[102.146509,51.097632],[102.193379,51.307205],[102.074679,51.374824],[101.350175,51.450452],[100.510898,51.726895],[99.917911,51.749478],[98.927636,52.129584],[98.682689,51.819474],[98.33222,51.718317],[98.220392,51.475205],[98.039731,51.4573],[97.80636,51.001126],[97.984644,50.846923],[97.944026,50.774473],[98.038491,50.622958],[98.293462,50.518623],[98.262457,50.283805],[98.047999,50.023046],[97.566582,49.916799],[97.57361,49.847501],[97.343339,49.734175],[97.152964,49.750246],[96.969202,49.886672],[96.585143,49.857526],[96.055976,49.99881],[95.946319,49.938503],[95.827876,50.020152],[95.500661,49.886724],[95.076398,49.945531],[94.921575,50.045887],[94.603455,50.019739],[94.354478,50.223602],[94.25867,50.557535],[93.104942,50.598825],[93.011408,50.623319],[92.961695,50.777884],[92.796123,50.788012],[92.649776,50.674066],[92.360905,50.868369],[92.15885,50.689103],[91.824193,50.701558],[91.415743,50.461365],[91.0,50.42158328972545],[91.0,56.0],[137.41595381027946,56.0],[136.430161,55.565246],[136.161627,55.318284],[135.469064,55.056664],[135.17335,54.821275],[135.244151,54.701239],[135.654145,54.665961],[135.750173,54.57095],[136.823497,54.647528],[136.883311,54.591376],[136.840831,54.432318],[136.738617,54.413804],[136.814464,54.159329],[136.65919,53.935045],[136.775157,53.773098],[137.18572,53.85106],[137.290863,54.035712],[137.061371,54.145697],[137.394786,54.308295],[137.73585,54.32099],[137.483897,54.084662],[137.307872,54.118354],[137.590505,53.956122],[137.862804,53.967597],[137.487966,53.670559],[137.217621,53.600572],[137.335134,53.529364],[138.150076,53.672756],[138.366384,53.909491],[138.578624,53.999335],[138.579926,53.828315],[138.215587,53.491767],[138.43922,53.513658],[138.655772,53.731757],[138.771821,54.01557],[138.7671,54.104682],[138.664724,54.07746],[138.746593,54.242499],[138.643565,54.297187],[139.302257,54.190619],[139.767589,54.303941],[139.815929,54.215155],[140.240571,54.056952],[140.330821,53.970282],[140.257335,53.868557],[140.581228,53.639309],[141.09783,53.474758],[140.949718,53.488959],[140.930919,53.436347],[141.407481,53.303778],[141.357758,53.220893],[141.432953,53.148871],[141.188813,52.987494],[140.706716,53.111029],[141.26059,52.85224],[141.20102,52.777411],[141.316254,52.659125],[141.128184,52.422919],[141.555837,52.162299],[141.354991,52.105902],[141.302582,52.021674],[141.425548,51.925482],[140.915294,51.623847],[140.901378,51.494086],[140.800059,51.454169],[140.87379,51.371772],[140.68629,51.312812],[140.706716,51.031684],[140.529796,50.862372],[140.442149,50.530097],[140.545421,50.344062],[140.52296,50.151068],[140.690929,50.080268],[140.415212,49.874579],[140.535004,49.777411],[140.560802,49.575385],[140.435557,49.294379],[140.335948,49.287543],[140.343598,49.047065],[140.219249,49.013861],[140.39796,48.992743],[140.212983,48.767401],[140.177013,48.461819],[139.261729,47.787909],[138.969493,47.317532],[138.562755,47.029934],[138.344574,46.548733],[137.671479,45.794623],[136.810802,45.193183],[136.443614,44.785102],[136.306977,44.744086],[136.165294,44.496527],[135.837901,44.362698],[135.624034,44.038479],[135.463634,43.949652],[135.518809,43.880764],[135.425792,43.76317],[135.182221,43.710639],[135.139903,43.508368],[133.926768,42.882717],[133.157725,42.688422],[133.024425,42.699368],[133.078868,42.749823],[132.989757,42.826972],[132.815929,42.756415],[132.763438,42.908149],[132.577891,42.840399],[132.404389,42.942288],[132.311534,42.845445],[132.345795,43.297919],[131.929942,43.069566],[131.849864,43.100491],[132.052013,43.314765],[131.826671,43.337958],[131.564952,42.996283],[131.393891,42.945014],[131.47169,42.873236],[131.273127,42.777331],[131.219547,42.554712],[131.120347,42.66719],[130.889659,42.599595],[130.815478,42.634172],[130.949714,42.653123],[130.65667,42.66408],[130.872895,42.527655],[130.703603,42.295241],[130.40745,42.324577],[130.40089,42.242499],[130.073041,42.078459],[129.690823,41.649716],[129.659403,41.464647],[129.806163,41.376044],[129.716558,40.834586],[129.233482,40.705714],[129.077564,40.472565],[128.636489,40.313217],[128.664561,40.201239],[128.327753,40.028216],[128.006847,40.045152],[127.874604,39.892808],[127.514415,39.738593],[127.562104,39.31623],[127.495128,39.433417],[127.378429,39.378852],[127.473399,39.347561],[127.391938,39.341864],[127.393403,39.201728],[127.759288,39.117011],[128.014659,38.85814],[128.347667,38.696723],[128.631602,38.144965],[129.06422,37.67886],[129.430186,37.073065],[129.473888,36.730618],[129.380859,36.041487],[129.453331,35.993287],[129.554795,36.082478],[129.58725,36.016913],[129.4546,35.513251],[129.373546,35.532782],[129.360444,35.353583],[129.12347,35.100845],[128.761971,35.079392],[128.602061,35.213935],[128.65211,35.061347],[128.389171,35.049018],[128.499604,35.009223],[128.420014,34.982733],[128.474457,34.890692],[128.41293,34.837635],[128.335053,34.947333],[128.055675,34.931627],[128.069347,35.082465],[127.891205,34.946682],[127.719249,34.990058],[127.575287,34.913642],[127.656505,34.811916],[127.775645,34.849066],[127.640717,34.617987],[127.560802,34.662177],[127.521251,34.889838],[127.365326,34.824042],[127.50359,34.591325],[127.349376,34.585842],[127.43922,34.540676],[127.343598,34.445014],[127.124522,34.540676],[127.357921,34.698228],[127.248057,34.766547],[127.010265,34.612494],[126.89796,34.417711],[126.777843,34.586493],[126.726899,34.43301],[126.633637,34.395697],[126.603282,34.300442],[126.521251,34.294176],[126.465912,34.472357],[126.539643,34.562974],[126.295258,34.589057],[126.290294,34.75023],[126.369884,34.608873],[126.46461,34.584662],[126.378613,34.711182],[126.535711,34.623178],[126.623627,34.62995],[126.364017,34.74916],[126.665294,34.808092],[126.567638,34.901435],[126.513276,34.782294],[126.373546,34.790717],[126.436371,34.981391],[126.315196,34.937893],[126.374115,35.016832],[126.254242,35.12344],[126.343028,35.156968],[126.425059,35.019761],[126.452403,35.100287],[126.30893,35.233303],[126.458507,35.345445],[126.492663,35.525333],[126.692475,35.534369],[126.467559,35.639638],[126.662154,35.792998],[126.781993,35.76024],[126.70338,35.848456],[126.837494,35.893297],[126.612289,35.890224],[126.521417,35.97052],[126.744477,35.989569],[126.870697,36.061957],[126.692475,35.999905],[126.493419,36.130805],[126.603282,36.17182],[126.498779,36.420106],[126.617442,36.473456],[126.497651,36.448391],[126.479584,36.747138],[126.424238,36.606581],[126.343028,36.740383],[126.295258,36.582709],[126.274181,36.719875],[126.177745,36.673245],[126.21339,36.726711],[126.128184,36.761298],[126.30893,36.966864],[126.282725,36.803697],[126.3567,36.788764],[126.4192,36.922309],[126.353038,36.999986],[126.445404,37.003404],[126.483897,36.841498],[126.519135,36.947903],[126.582612,36.898017],[126.500743,37.054999],[126.631114,36.911607],[126.681544,36.994704],[126.796235,36.955756],[126.850841,36.753974],[126.860199,36.869574],[126.989513,36.918606],[127.039399,36.982001],[126.873383,36.947984],[126.890473,37.095933],[126.751191,37.070092],[126.870697,37.175482],[126.668468,37.161811],[126.67213,37.261705],[126.870697,37.26789],[126.595985,37.439657],[126.644163,37.504385],[126.531016,37.754706],[126.648529,37.765041],[126.661469,37.672431],[126.755219,37.637885],[126.678803,37.686265],[126.699962,37.829657],[126.576182,37.777533],[126.378673,37.889594],[126.110362,37.740912],[126.055756,37.870592],[125.959483,37.912177],[125.986176,37.822821],[125.921641,37.844875],[125.799327,37.992906],[125.596934,38.032213],[125.739757,37.925238],[125.630626,37.925238],[125.620128,37.765326],[125.527599,37.796129],[125.347504,37.675605],[125.444916,37.7744],[125.389903,37.796129],[125.524181,37.817816],[125.510102,37.894273],[125.30836,37.809149],[125.239513,37.822821],[125.30836,37.878079],[125.26002,37.932685],[125.176606,37.867621],[124.979503,37.925238],[125.264903,38.077948],[124.677094,38.115383],[124.993012,38.226955],[124.872325,38.257636],[124.879731,38.345201],[125.016368,38.497952],[124.983949,38.591942],[125.128009,38.580281],[125.123383,38.666327],[125.462657,38.707261],[125.657807,38.631008],[125.447765,38.777248],[125.27768,38.703315],[125.137218,38.803534],[125.198643,38.986056],[125.335053,39.083441],[125.287364,39.15233],[125.410899,39.213813],[125.459239,39.385077],[125.34254,39.433539],[125.444916,39.584377],[125.116954,39.565863],[124.746104,39.782945],[124.743907,39.644355],[124.637452,39.590483],[124.564057,39.814276],[124.321544,39.912665],[124.499604,40.022528],[124.369965,40.098293],[124.2942,39.933783],[124.118175,39.833157],[123.773041,39.818345],[123.656749,39.919501],[123.591401,39.784329],[123.427745,39.72663],[123.417084,39.82453],[123.244721,39.814032],[123.223155,39.679755],[123.009125,39.680487],[122.29005,39.350979],[122.042328,39.059719],[121.826915,39.036282],[121.859874,38.944648],[121.724701,39.030178],[121.587413,38.94009],[121.6963,38.862942],[121.153087,38.727607],[121.117931,38.943427],[121.674083,39.088039],[121.589939,39.264054],[121.942963,39.399359],[121.52589,39.364651],[121.436046,39.508612],[121.223399,39.528632],[121.533295,39.622301],[121.470714,39.810248],[121.87379,39.9914],[121.826915,40.022528],[122.30185,40.502346],[122.150434,40.603864],[122.159434,40.701606],[121.851085,40.832261],[121.867931,40.995795],[121.739552,40.849079],[121.361339,40.939643],[120.981944,40.826809],[120.939545,40.740546],[121.020738,40.71933],[120.825321,40.674033],[120.545665,40.402411],[120.591153,40.367298],[120.472016,40.214301],[119.535592,39.890826],[119.208588,39.569566],[119.281398,39.575014],[119.279429,39.384006],[118.926036,39.130601],[118.969981,39.193305],[118.87379,39.213813],[118.326096,39.030932],[118.02802,39.219798],[117.715424,39.111396],[117.775264,38.981058],[117.701915,38.995307],[117.543549,38.621324],[117.716082,38.378511],[118.065214,38.143082],[118.950037,38.097262],[119.259597,37.715847],[119.069472,37.740631],[118.969981,37.593451],[118.961192,37.29564],[119.145518,37.17886],[119.7706,37.151842],[119.897309,37.249416],[119.858897,37.360175],[120.32252,37.632392],[120.215668,37.684068],[120.738048,37.83397],[121.13795,37.701158],[121.171641,37.577094],[121.393565,37.622463],[121.570323,37.428656],[121.988048,37.425605],[122.121837,37.56273],[122.183197,37.418158],[122.688243,37.409817],[122.549653,37.31977],[122.628917,37.192816],[122.453949,37.154283],[122.402354,37.02147],[122.54005,37.027737],[122.507416,36.898017],[122.405772,36.922187],[122.436371,36.870673],[122.319835,36.822943],[122.185313,36.849921],[122.26588,36.898017],[122.166108,37.014106],[122.033051,36.898017],[122.049164,36.979926],[121.92628,36.993598],[121.949799,36.93891],[121.637462,36.831366],[121.625255,36.740383],[121.49643,36.774482],[121.607188,36.844957],[121.459483,36.828681],[121.401703,36.712388],[121.023529,36.58393],[120.75058,36.616848],[120.750255,36.540758],[120.850352,36.60456],[120.963634,36.547919],[120.949962,36.459174],[120.867442,36.377183],[120.806895,36.463935],[120.714122,36.428697],[120.722179,36.330552],[120.643647,36.322496],[120.704845,36.156236],[120.627778,36.116523],[120.353526,36.040839],[120.292003,36.061957],[120.361583,36.191636],[120.306407,36.274237],[120.284516,36.175971],[120.097179,36.226386],[120.175304,35.993638],[120.298839,35.973131],[120.097179,35.900824],[120.00294,35.727769],[119.908214,35.744859],[119.904552,35.624579],[119.64796,35.58393],[119.358002,35.097113],[119.192882,35.000434],[119.192231,34.718207],[119.442231,34.746039],[119.647716,34.53384],[120.257091,34.311835],[120.483735,33.64997],[120.895763,33.013577],[120.830333,32.697659],[121.389409,32.384948],[121.36085,32.231635],[121.44337,32.114325],[121.821945,31.952486],[121.930383,31.726714],[121.675554,31.723573],[121.286418,31.890589],[120.977817,31.814365],[120.810802,32.02261],[120.634376,32.07701],[120.131358,31.943183],[119.992035,32.015855],[119.842133,32.299058],[119.612885,32.35456],[119.685395,32.292426],[119.606049,32.196926],[119.788585,32.198635],[119.772472,32.126776],[120.006396,31.950305],[120.229991,31.908881],[120.469493,32.025133],[120.750354,31.978336],[120.824799,31.828702],[120.731456,31.81387],[121.144402,31.684658],[121.725164,31.281567],[121.977383,30.914923],[121.020226,30.571071],[120.810732,30.296568],[120.698148,30.393951],[120.479145,30.403524],[120.430315,30.38984],[120.378967,30.273524],[120.257904,30.298082],[120.147094,30.198891],[120.38472,30.249588],[120.450494,30.36886],[120.621606,30.372563],[120.734401,30.232213],[120.631789,30.122388],[120.682465,30.084906],[120.792247,30.066067],[120.646251,30.126939],[120.751425,30.225626],[120.892812,30.169796],[121.254102,30.348393],[121.429592,30.292976],[121.721934,29.960517],[121.935557,29.887356],[122.136415,29.884535],[121.687348,29.562649],[121.44337,29.524237],[121.484864,29.39054],[121.710948,29.538642],[121.811988,29.490118],[121.844819,29.5362],[121.744965,29.544664],[121.79612,29.600591],[121.971202,29.593329],[121.910411,29.524563],[121.942963,29.195868],[121.785347,29.168085],[121.786632,29.374498],[121.724328,29.182035],[121.652458,29.18302],[121.640391,29.306627],[121.628917,29.188422],[121.574311,29.305121],[121.408539,29.161119],[121.62143,29.113267],[121.614757,29.058051],[121.536876,29.061184],[121.532074,29.020494],[121.689789,29.017076],[121.684174,28.9147],[121.587413,28.963121],[121.570811,28.93008],[121.516856,28.956366],[121.491791,28.928371],[121.669932,28.825344],[121.62143,28.735907],[121.351166,28.711859],[121.142345,28.845852],[121.299327,28.722886],[121.258393,28.675116],[121.510128,28.657059],[121.621349,28.285102],[121.408946,28.304918],[121.330089,28.147528],[121.261695,28.225791],[121.225165,28.238863],[121.264659,28.366034],[121.168956,28.384833],[121.024994,28.304592],[121.124753,28.23552],[120.965228,27.987145],[120.559581,28.112779],[120.868364,27.882559],[120.722614,27.71591],[120.635265,27.763332],[120.675629,27.659654],[120.596574,27.570283],[120.681977,27.481594],[120.504893,27.344957],[120.517833,27.201606],[120.195811,27.297797],[120.182384,27.216864],[120.34726,27.24258],[120.421723,27.146959],[120.243663,27.132717],[120.255219,26.997056],[120.148692,26.981879],[120.219086,26.915432],[120.031993,26.899888],[120.128184,26.796942],[120.134369,26.646064],[119.847179,26.523627],[120.079682,26.796942],[119.925141,26.792182],[119.879649,26.655341],[119.791759,26.68769],[119.846283,26.8522],[119.756196,26.737738],[119.685802,26.811998],[119.724946,26.697821],[119.606049,26.796942],[119.552094,26.749091],[119.599864,26.57038],[119.784923,26.577826],[119.791759,26.413316],[119.653656,26.498033],[119.566417,26.454901],[119.681895,26.317125],[119.825776,26.426947],[119.949962,26.364936],[119.654307,26.272406],[119.458507,25.982489],[119.435557,25.98135],[119.41505,26.009263],[119.27711,26.052924],[119.215831,26.100084],[119.093516,26.145819],[119.246837,25.967231],[119.329845,25.944281],[119.440929,25.963813],[119.519054,26.044501],[119.695404,26.002631],[119.566417,25.872056],[119.589936,25.687161],[119.449067,25.687161],[119.492442,25.564765],[119.579438,25.584662],[119.654552,25.35814],[119.579438,25.344468],[119.57602,25.467353],[119.483246,25.371161],[119.507335,25.474433],[119.447032,25.438788],[119.38087,25.590888],[119.305186,25.60456],[119.10255,25.420315],[119.201264,25.259711],[119.277843,25.330227],[119.344249,25.242377],[119.116096,25.213782],[119.099132,25.111151],[119.029063,25.14053],[119.068858,25.216742],[118.96933,25.226386],[119.027298,25.278238],[118.87558,25.243842],[118.97462,25.182563],[118.849132,25.073798],[119.004161,25.050238],[119.01767,24.960273],[118.911632,24.953437],[118.951996,24.870754],[118.716075,24.843573],[118.667735,24.953437],[118.671153,24.874661],[118.572032,24.885199],[118.63795,24.772121],[118.76295,24.762681],[118.620453,24.545478],[118.553966,24.518052],[118.431244,24.699693],[118.404796,24.606635],[118.219005,24.541449],[118.160492,24.693427],[118.110362,24.584052],[117.974864,24.55272],[118.058116,24.515855],[118.021739,24.445746],[117.79127,24.467475],[118.042979,24.406684],[118.01588,24.32685],[118.126475,24.26203],[117.907319,24.186265],[117.893647,24.028022],[117.748057,23.907538],[117.798106,24.021796],[117.667084,24.06273],[117.591669,23.737064],[117.571056,23.903266],[117.416596,23.946845],[117.490073,23.832579],[117.277354,23.782213],[117.257093,23.615616],[117.229503,23.692816],[117.084228,23.550606],[117.068413,23.651273],[116.916515,23.662746],[116.773224,23.349432],[116.523204,23.418524],[116.804822,23.236122],[116.667247,23.281317],[116.646755,23.162991],[116.61151,23.23873],[116.508881,23.234117],[116.604504,23.209557],[116.494688,22.939352],[116.213634,22.982815],[116.281458,22.957857],[116.14491,22.847823],[116.042105,22.932918],[116.076178,22.867871],[115.81003,22.746091],[115.684266,22.877779],[115.730317,22.934231],[115.560557,22.849311],[115.547618,22.895413],[115.406016,22.925035],[115.468028,22.849311],[115.559418,22.836086],[115.612071,22.863593],[115.527017,22.767042],[115.575219,22.668336],[115.373508,22.694177],[115.411208,22.788268],[115.233391,22.788209],[115.317149,22.904527],[114.985342,22.689309],[114.862524,22.763216],[114.966629,22.676487],[114.895966,22.547524],[114.743776,22.609404],[114.775238,22.815823],[114.522065,22.705959],[114.590343,22.643866],[114.495372,22.561957],[114.617686,22.514146],[114.515816,22.452643],[114.408702,22.61164]]],[[[113.50996,22.921216],[113.54514,22.937762],[113.545014,22.879961],[113.50996,22.921216]]],[[[91.0,46.094160059522565],[91.002435,46.021843],[91.0,46.01753151790225],[91.0,46.094160059522565]]],[[[91.0,46.5921623861039],[91.047496,46.566409],[91.0,46.471400531511506],[91.0,46.5921623861039]]],[[[91.0,46.745899973637194],[91.011736,46.662941],[91.0,46.62621975971266],[91.0,46.745899973637194]]],[[[120.82309,21.928616],[120.700369,21.948432],[120.621267,22.295071],[120.511974,22.42475],[120.38087,22.483873],[120.331228,22.519721],[120.285167,22.580064],[120.333669,22.525946],[120.166189,23.031724],[120.055186,23.043687],[120.164577,23.361711],[120.143609,23.638036],[121.005544,25.000678],[121.443207,25.13642],[121.43629,25.241441],[121.580821,25.283026],[122.005382,25.001899],[121.823497,24.854926],[121.881847,24.597805],[121.607432,24.07685],[121.400076,23.145494],[120.948253,22.526801],[120.82309,21.928616]]],[[[117.128781,23.399369],[117.048897,23.40471],[116.942989,23.430062],[117.125852,23.482692],[117.128781,23.399369]]],[[[120.090301,23.499396],[120.007656,23.432594],[120.12477,23.550454],[120.090301,23.499396]]],[[[116.970958,23.514635],[116.974376,23.559394],[117.009288,23.554999],[116.970958,23.514635]]],[[[119.64796,23.603461],[119.582367,23.518948],[119.52711,23.539984],[119.64796,23.603461]]],[[[119.517345,23.6376],[119.442393,23.562486],[119.501313,23.650377],[119.517345,23.6376]]],[[[119.578868,23.673082],[119.576834,23.622504],[119.545258,23.664944],[119.578868,23.673082]]],[[[117.526661,23.740107],[117.431559,23.58263],[117.320483,23.574016],[117.372732,23.76675],[117.526661,23.740107]]],[[[118.448785,24.415513],[118.282074,24.477362],[118.44959,24.505528],[118.448785,24.415513]]],[[[118.181407,24.535102],[118.073416,24.452704],[118.09254,24.55622],[118.181407,24.535102]]],[[[119.567556,25.204901],[119.512706,25.198798],[119.446544,25.235989],[119.567556,25.204901]]],[[[119.32602,25.433987],[119.281505,25.482896],[119.343272,25.57331],[119.352061,25.552232],[119.32602,25.433987]]],[[[119.874522,25.556789],[119.739919,25.407782],[119.668468,25.48786],[119.778331,25.52204],[119.692719,25.594224],[119.76352,25.659491],[119.874522,25.556789]]],[[[119.404959,25.977932],[119.257579,26.001451],[119.209239,26.098578],[119.257579,26.047553],[119.404959,25.977932]]],[[[119.553966,26.095649],[119.626964,26.107896],[119.638845,26.070502],[119.553966,26.095649]]],[[[120.337087,26.970038],[120.385671,26.935167],[120.318533,26.948594],[120.337087,26.970038]]],[[[121.103479,27.46007],[121.050088,27.456056],[121.053403,27.47332],[121.103479,27.46007]]],[[[119.792003,32.121772],[119.819347,32.203762],[119.750824,32.293118],[119.832856,32.252143],[119.901866,32.073391],[119.792003,32.121772]]],[[[120.726329,37.90884],[120.757335,37.922675],[120.754568,37.896674],[120.726329,37.90884]]],[[[120.601899,37.969306],[120.625824,37.972561],[120.622895,37.948798],[120.601899,37.969306]]],[[[120.694998,37.974677],[120.720063,37.980943],[120.727306,37.969428],[120.694998,37.974677]]],[[[120.760427,38.170478],[120.746593,38.161851],[120.742686,38.187567],[120.760427,38.170478]]],[[[120.833751,38.312567],[120.806488,38.288235],[120.800059,38.287502],[120.833751,38.312567]]],[[[120.907563,38.385159],[120.917817,38.395453],[120.923188,38.383246],[120.907563,38.385159]]],[[[118.514308,38.919445],[118.488193,39.050492],[118.648672,39.055851],[118.514308,38.919445]]],[[[121.53891,22.018215],[121.56658,22.08218],[121.587657,22.013861],[121.53891,22.018215]]],[[[121.500011,22.676256],[121.471446,22.641791],[121.455414,22.673814],[121.500011,22.676256]]],[[[121.188487,27.863715],[121.097992,27.817816],[121.096039,27.827867],[121.188487,27.863715]]],[[[121.07016,27.982896],[121.103282,27.946194],[121.040212,27.957953],[121.07016,27.982896]]],[[[121.233653,28.082424],[121.151573,28.041232],[121.120372,28.135688],[121.230588,28.219733],[121.233653,28.082424]]],[[[121.888682,29.072333],[121.926606,29.166734],[121.958344,29.101874],[121.888682,29.072333]]],[[[121.842052,29.095038],[121.789806,29.149848],[121.867361,29.11579],[121.842052,29.095038]]],[[[122.18686,29.673407],[122.036469,29.717475],[122.068207,29.779527],[122.18686,29.673407]]],[[[122.232677,29.827826],[122.312022,29.829047],[122.314708,29.783677],[122.295584,29.77912],[122.232677,29.827826]]],[[[122.377208,29.838935],[122.320567,29.937242],[122.33546,29.96133],[122.409434,29.945705],[122.377208,29.838935]]],[[[121.946137,29.903957],[121.986827,29.929877],[121.992442,29.908271],[121.946137,29.903957]]],[[[121.90919,30.044989],[121.827403,30.004218],[121.853038,30.087144],[121.90919,30.044989]]],[[[122.277843,29.939927],[122.010509,30.000312],[121.963145,30.142401],[122.29713,30.062567],[122.277843,29.939927]]],[[[122.277599,30.235541],[122.382579,30.277167],[122.410655,30.254706],[122.277599,30.235541]]],[[[122.202322,30.241929],[122.137706,30.254625],[122.073578,30.291409],[122.211436,30.346625],[122.202322,30.241929]]],[[[122.347992,30.435981],[122.28712,30.48314],[122.423106,30.414944],[122.347992,30.435981]]],[[[122.52475,30.701809],[122.429942,30.743069],[122.529307,30.720771],[122.52475,30.701809]]],[[[121.877452,31.319648],[121.7942,31.368801],[121.867849,31.366197],[121.877452,31.319648]]],[[[121.591156,31.445868],[121.725597,31.402737],[121.78004,31.325181],[121.766368,31.320624],[121.591156,31.445868]]],[[[121.730235,31.484768],[121.314464,31.655585],[121.181443,31.79598],[121.386133,31.811736],[121.986598,31.503897],[121.730235,31.484768]]],[[[125.113292,34.092841],[125.092133,34.071763],[125.094574,34.090074],[125.113292,34.092841]]],[[[125.041759,37.817288],[124.997813,37.813056],[125.040782,37.834459],[125.041759,37.817288]]],[[[124.714203,37.809556],[124.676524,37.824897],[124.724457,37.843655],[124.714203,37.809556]]],[[[124.743663,37.969672],[124.644054,37.924506],[124.624034,37.980455],[124.743663,37.969672]]],[[[124.79949,38.50849],[124.877208,38.536322],[124.903982,38.494371],[124.79949,38.50849]]],[[[123.160655,39.029242],[123.180675,39.091946],[123.195811,39.065334],[123.160655,39.029242]]],[[[122.402599,39.213813],[122.333995,39.146308],[122.3213,39.165961],[122.402599,39.213813]]],[[[122.741954,39.23607],[122.69752,39.221259],[122.635997,39.23428],[122.741954,39.23607]]],[[[122.54656,39.296942],[122.684418,39.262193],[122.505056,39.296942],[122.54656,39.296942]]],[[[121.436046,39.409817],[121.336925,39.377387],[121.364268,39.445461],[121.257579,39.399644],[121.35255,39.482408],[121.436046,39.409817]]],[[[124.61907,39.43301],[124.592865,39.446804],[124.612559,39.457139],[124.61907,39.43301]]],[[[124.704845,39.508734],[124.69362,39.535079],[124.704708,39.537076],[124.704845,39.508734]]],[[[122.979747,39.499335],[122.989757,39.549506],[123.04005,39.529731],[122.979747,39.499335]]],[[[124.595876,39.537909],[124.673839,39.570624],[124.69809,39.562893],[124.595876,39.537909]]],[[[124.818563,39.495444],[124.880471,39.612455],[124.926741,39.604786],[124.933609,39.550543],[124.818563,39.495444]]],[[[124.220994,39.818974],[124.241627,39.801856],[124.211662,39.795157],[124.220994,39.818974]]],[[[126.927257,33.416083],[126.840587,33.310207],[126.565527,33.232908],[126.27003,33.197577],[126.161143,33.300767],[126.310567,33.464476],[126.648798,33.553426],[126.823366,33.55944],[126.927257,33.416083]]],[[[126.615977,34.156968],[126.536876,34.126451],[126.507091,34.138861],[126.532888,34.179104],[126.615977,34.156968]]],[[[126.679454,34.146552],[126.636485,34.141547],[126.645274,34.19717],[126.679454,34.146552]]],[[[126.901866,34.152411],[126.882172,34.213284],[126.924978,34.184882],[126.901866,34.152411]]],[[[126.606619,34.1883],[126.556407,34.232123],[126.616222,34.213284],[126.606619,34.1883]]],[[[126.088715,34.307929],[126.028656,34.28734],[126.025727,34.310777],[126.088715,34.307929]]],[[[126.84962,34.304918],[126.757579,34.336127],[126.893321,34.341254],[126.84962,34.304918]]],[[[126.736501,34.291693],[126.644867,34.337104],[126.653656,34.395209],[126.721853,34.381293],[126.736501,34.291693]]],[[[126.768403,34.411363],[126.861095,34.392768],[126.775727,34.354722],[126.768403,34.411363]]],[[[126.380056,34.49844],[126.198497,34.355536],[126.103282,34.402777],[126.247732,34.574774],[126.380056,34.49844]]],[[[126.103363,34.579413],[126.031261,34.556383],[126.076345,34.57099],[126.067638,34.625474],[126.103363,34.579413]]],[[[126.060395,34.584296],[126.020518,34.571438],[126.028575,34.634223],[126.060395,34.584296]]],[[[125.459239,34.686835],[125.40561,34.682563],[125.457286,34.690904],[125.459239,34.686835]]],[[[126.005382,34.692613],[125.916026,34.687649],[125.976736,34.728258],[126.005382,34.692613]]],[[[126.173839,34.744452],[126.104259,34.721991],[126.069591,34.76968],[126.173839,34.744452]]],[[[126.007579,34.759711],[125.893891,34.762274],[126.004405,34.787177],[126.007579,34.759711]]],[[[126.09254,34.787584],[126.149425,34.808092],[126.168712,34.792304],[126.146251,34.761868],[126.09254,34.787584]]],[[[126.064138,34.842597],[126.153087,34.864976],[126.096202,34.798774],[126.064138,34.842597]]],[[[126.361664,34.837388],[126.248709,34.844713],[126.230724,34.85456],[126.297374,34.917548],[126.361664,34.837388]]],[[[126.091482,34.896918],[125.986501,34.868964],[126.070079,34.9289],[126.091482,34.896918]]],[[[126.230235,34.935452],[126.237559,34.913072],[126.220388,34.922431],[126.230235,34.935452]]],[[[126.172374,35.023627],[126.129649,35.05268],[126.180919,35.044013],[126.172374,35.023627]]],[[[126.169444,35.073676],[126.236013,35.098375],[126.261078,35.024563],[126.236095,35.051947],[126.169444,35.073676]]],[[[126.110606,35.051174],[126.129405,35.14289],[126.165212,35.1435],[126.110606,35.051174]]],[[[126.258067,35.570624],[126.302989,35.61933],[126.309418,35.610663],[126.258067,35.570624]]],[[[126.43214,36.407945],[126.314818,36.581787],[126.360244,36.60936],[126.43214,36.407945]]],[[[126.104747,37.267524],[126.142345,37.215399],[126.088634,37.225979],[126.104747,37.267524]]],[[[126.539317,37.198065],[126.542979,37.28498],[126.618826,37.242011],[126.539317,37.198065]]],[[[126.469493,37.233466],[126.443533,37.273098],[126.494395,37.273505],[126.469493,37.233466]]],[[[126.548291,37.476637],[126.443413,37.420625],[126.355511,37.466223],[126.51483,37.534347],[126.548291,37.476637]]],[[[125.67921,37.669664],[125.706228,37.672309],[125.687836,37.65176],[125.67921,37.669664]]],[[[126.349864,37.657375],[126.323741,37.745551],[126.380707,37.669176],[126.349864,37.657375]]],[[[126.390636,37.60928],[126.36964,37.785346],[126.425304,37.824449],[126.542003,37.631049],[126.390636,37.60928]]],[[[125.226329,37.696357],[125.274587,37.733832],[125.337738,37.768704],[125.226329,37.696357]]],[[[126.318207,37.762274],[126.24643,37.811754],[126.34254,37.792141],[126.318207,37.762274]]],[[[125.183849,37.818834],[125.156261,37.786689],[125.141368,37.799506],[125.183849,37.818834]]],[[[127.295665,34.014106],[127.295665,34.061469],[127.323497,34.005764],[127.295665,34.014106]]],[[[127.028575,34.380439],[127.038829,34.312893],[126.991466,34.356269],[127.028575,34.380439]]],[[[127.49464,34.414252],[127.45338,34.470608],[127.536388,34.44066],[127.49464,34.414252]]],[[[127.228689,34.430243],[127.110525,34.464911],[127.245128,34.464057],[127.228689,34.430243]]],[[[127.771169,34.488186],[127.712901,34.542426],[127.793956,34.498236],[127.771169,34.488186]]],[[[128.281749,34.619859],[128.232758,34.651028],[128.29713,34.637315],[128.281749,34.619859]]],[[[127.818126,34.616156],[127.73585,34.62523],[127.785899,34.718166],[127.818126,34.616156]]],[[[128.428226,34.827448],[128.406534,34.763098],[128.332049,34.825702],[128.428226,34.827448]]],[[[128.238455,34.796942],[128.227306,34.838568],[128.260509,34.814643],[128.238455,34.796942]]],[[[128.060069,34.708401],[127.868012,34.721869],[127.872895,34.924465],[127.961925,34.806952],[128.069591,34.815009],[128.060069,34.708401]]],[[[128.720551,35.027248],[128.678233,34.72484],[128.583995,34.705146],[128.604503,34.835435],[128.488455,34.868964],[128.645518,34.890692],[128.610606,34.954901],[128.720551,35.027248]]],[[[127.987315,34.83808],[128.017833,34.916571],[128.082367,34.835598],[127.987315,34.83808]]],[[[128.824229,34.996731],[128.843272,35.047187],[128.831798,34.993801],[128.824229,34.996731]]],[[[130.877696,37.455512],[130.832286,37.532131],[130.920665,37.53559],[130.877696,37.455512]]],[[[132.477712,42.8039],[132.399669,42.852118],[132.427501,42.895901],[132.477712,42.8039]]],[[[131.757009,42.990058],[131.826508,43.065172],[131.924001,43.005845],[131.883311,42.960761],[131.757009,42.990058]]],[[[142.586925,54.247056],[142.723155,54.425605],[143.003917,54.135484],[142.851817,53.871975],[142.933767,53.857652],[143.002126,53.700629],[142.926768,53.829779],[142.906505,53.766791],[143.070811,53.598212],[142.988455,53.562893],[143.099132,53.55386],[143.094086,53.381903],[143.196625,53.388129],[143.29005,53.151923],[143.331065,52.603909],[143.251964,52.389635],[143.193696,52.336982],[143.276378,52.597724],[143.126964,52.358832],[143.17335,52.268134],[143.097667,52.104234],[143.163097,51.873969],[143.238455,51.891547],[143.310395,51.75434],[143.224132,51.522162],[143.337901,51.508368],[143.365082,51.644965],[143.447765,51.508368],[143.474946,51.343248],[143.379405,51.350084],[143.483084,51.213568],[143.521658,51.285102],[143.790294,50.309231],[144.0,50.01690118384123],[144.0,49.27008448168978],[143.258637,49.393378],[143.331309,49.31391],[143.666759,49.314887],[143.174164,49.245998],[143.0088,49.123033],[142.988455,48.916693],[142.535899,48.002387],[142.545258,47.766669],[142.714041,47.437242],[143.016368,47.253607],[143.097667,46.875556],[143.174083,46.862738],[143.091482,46.803412],[143.341319,46.683783],[143.371349,46.73843],[143.177745,46.832465],[143.497895,46.800727],[143.557628,46.39643],[143.625743,46.374701],[143.474946,46.087307],[143.430512,46.025214],[143.368663,46.555487],[142.796641,46.594387],[142.710948,46.745185],[142.457205,46.630805],[142.085297,45.900824],[141.932628,46.035793],[141.81422,46.538398],[142.056651,47.053697],[141.965831,47.612494],[142.191091,47.966742],[142.133149,48.333686],[141.857432,48.774237],[141.967296,48.862372],[142.125011,49.462307],[142.173839,50.086412],[142.041352,50.550971],[142.269216,51.112413],[142.078949,51.471381],[141.686778,51.747301],[141.823009,51.744208],[141.639008,51.884508],[141.69988,52.165717],[141.641856,52.318183],[141.843761,52.590806],[141.928396,53.020657],[141.768809,53.371649],[142.241059,53.529364],[142.263927,53.380072],[142.455333,53.380276],[142.687266,53.529364],[142.514008,53.5456],[142.497732,53.658271],[142.800059,53.697577],[142.739106,53.845689],[142.604177,53.697577],[142.708263,53.948228],[142.282563,54.303941],[142.586925,54.247056]]],[[[142.567638,54.30976],[142.588064,54.3039],[142.540701,54.297797],[142.567638,54.30976]]],[[[137.917979,54.509426],[137.819672,54.384955],[137.715099,54.367174],[137.917979,54.509426]]],[[[137.622569,54.570787],[137.641124,54.400458],[137.546723,54.413804],[137.622569,54.570787]]],[[[139.243593,54.581032],[139.239606,54.58926],[139.27675,54.61311],[139.243593,54.581032]]],[[[138.190013,54.715579],[138.240995,54.713712],[138.180823,54.715083],[138.190013,54.715579]]],[[[138.021007,54.937242],[137.986176,54.797431],[137.718923,54.624335],[137.485362,54.87934],[137.225922,54.777818],[137.567882,55.194648],[137.952159,55.146877],[137.883149,55.002875],[138.212169,55.036363],[138.021007,54.937242]]],[[[137.088145,54.954413],[136.738129,54.885077],[136.670421,54.907294],[137.171235,55.119534],[137.088145,54.954413]]]]}}